H1 CPF  1  MCC 2022  8 19 12  7311 larets
H2  0304206 5557    27944 2022 08 18 23 45 00 2022 08 23 23 57 00   180 1 1  0 0 0
H9
10 0 59809 85500.000000 0     -1863992.482      -138662.463     -6826336.339
10 0 59809 85680.000000 0      -792055.247       678802.610     -7000521.884
10 0 59809 85860.000000 0       329131.840      1443071.455     -6921116.779
10 0 59809 86040.000000 0      1457476.241      2125904.999     -6590935.456
10 0 59809 86220.000000 0      2549886.167      2703052.718     -6021742.903
10 0 59810     0.000000 0      3563876.853      3155104.331     -5233886.670
10 0 59810   180.000000 0      4459199.320      3468149.565     -4255646.552
10 0 59810   360.000000 0      5199445.936      3634226.899     -3122304.638
10 0 59810   540.000000 0      5753564.933      3651535.545     -1874939.913
10 0 59810   720.000000 0      6097212.166      3524397.123      -558977.852
10 0 59810   900.000000 0      6213869.299      3262956.773       777461.939
10 0 59810  1080.000000 0      6095662.360      2882630.948      2085355.263
10 0 59810  1260.000000 0      5743826.498      2403327.552      3316623.424
10 0 59810  1440.000000 0      5168786.374      1848476.211      4425960.845
10 0 59810  1620.000000 0      4389841.100      1243917.585      5372549.959
10 0 59810  1800.000000 0      3434480.268       616713.707      6121587.605
10 0 59810  1980.000000 0      2337359.521        -6060.808      6645568.359
10 0 59810  2160.000000 0      1138995.055      -598485.345      6925274.032
10 0 59810  2340.000000 0      -115767.560     -1136872.819      6950460.792
10 0 59810  2520.000000 0     -1379459.873     -1600722.170      6720218.049
10 0 59810  2700.000000 0     -2603803.335     -1973506.458      6242993.079
10 0 59810  2880.000000 0     -3741566.022     -2243267.482      5536293.256
10 0 59810  3060.000000 0     -4748416.355     -2403005.996      4626071.891
10 0 59810  3240.000000 0     -5584696.970     -2450850.066      3545788.320
10 0 59810  3420.000000 0     -6217035.101     -2389988.429      2335178.068
10 0 59810  3600.000000 0     -6619724.093     -2228377.446      1038776.664
10 0 59810  3780.000000 0     -6775806.589     -1978234.357      -295761.054
10 0 59810  3960.000000 0     -6677792.257     -1655337.231     -1619469.636
10 0 59810  4140.000000 0     -6327974.797     -1278173.083     -2883925.091
10 0 59810  4320.000000 0     -5738336.694      -866984.233     -4043051.092
10 0 59810  4500.000000 0     -4930060.617      -442763.330     -5054802.282
10 0 59810  4680.000000 0     -3932682.377       -26248.028     -5882658.455
10 0 59810  4860.000000 0     -2782936.312       363033.095     -6496878.667
10 0 59810  5040.000000 0     -1523358.755       707621.479     -6875483.795
10 0 59810  5220.000000 0      -200711.580       992863.469     -7004961.284
10 0 59810  5400.000000 0      1135719.097      1207499.353     -6880687.093
10 0 59810  5580.000000 0      2435902.663      1344089.472     -6507075.986
10 0 59810  5760.000000 0      3650886.827      1399268.659     -5897449.437
10 0 59810  5940.000000 0      4734604.094      1373818.830     -5073614.934
10 0 59810  6120.000000 0      5645611.969      1272557.955     -4065167.082
10 0 59810  6300.000000 0      6348711.165      1104047.548     -2908506.422
10 0 59810  6480.000000 0      6816370.297       880124.881     -1645591.714
10 0 59810  6660.000000 0      7029890.286       615277.054      -322451.087
10 0 59810  6840.000000 0      6980233.029       325881.839      1012501.547
10 0 59810  7020.000000 0      6668463.726        29353.308      2310272.275
10 0 59810  7200.000000 0      6105774.011      -256767.210      3523142.001
10 0 59810  7380.000000 0      5313071.730      -515724.536      4606479.213
10 0 59810  7560.000000 0      4320165.889      -732416.395      5520424.876
10 0 59810  7740.000000 0      3164586.980      -894170.814      6231381.452
10 0 59810  7920.000000 0      1890106.605      -991392.048      6713244.338
10 0 59810  8100.000000 0       545029.780     -1018049.883      6948344.464
10 0 59810  8280.000000 0      -819675.526      -971991.157      6928075.695
10 0 59810  8460.000000 0     -2152333.827      -855060.530      6653191.113
10 0 59810  8640.000000 0     -3402533.103      -673026.064      6133772.953
10 0 59810  8820.000000 0     -4523052.636      -435311.831      5388880.924
10 0 59810  9000.000000 0     -5471687.642      -154549.343      4445876.614
10 0 59810  9180.000000 0     -6212892.725       154035.842      3339430.792
10 0 59810  9360.000000 0     -6719170.174       473377.015      2110246.645
10 0 59810  9540.000000 0     -6972143.782       785424.880       803541.319
10 0 59810  9720.000000 0     -6963260.396      1072066.793      -532662.646
10 0 59810  9900.000000 0     -6694075.814      1316059.026     -1849360.469
10 0 59810 10080.000000 0     -6176113.379      1501921.500     -3098412.365
10 0 59810 10260.000000 0     -5430314.352      1616751.327     -4234336.996
10 0 59810 10440.000000 0     -4486106.691      1650909.465     -5215968.822
10 0 59810 10620.000000 0     -3380161.667      1598550.528     -6007908.369
10 0 59810 10800.000000 0     -2154912.839      1457976.255     -6581726.935
10 0 59810 10980.000000 0      -856905.258      1231802.364     -6916903.976
10 0 59810 11160.000000 0       464958.901       926936.999     -7001479.611
10 0 59810 11340.000000 0      1761213.642       554374.543     -6832429.898
10 0 59810 11520.000000 0      2983625.863       128809.815     -6415768.155
10 0 59810 11700.000000 0      4086944.838      -331918.317     -5766358.284
10 0 59810 11880.000000 0      5030552.112      -807538.719     -4907445.312
10 0 59810 12060.000000 0      5779968.791     -1276195.837     -3869908.020
10 0 59810 12240.000000 0      6308166.156     -1715406.573     -2691229.395
10 0 59810 12420.000000 0      6596616.642     -2103089.007     -1414202.315
10 0 59810 12600.000000 0      6636028.803     -2418616.985       -85402.484
10 0 59810 12780.000000 0      6426718.579     -2643846.685      1246519.325
10 0 59810 12960.000000 0      5978585.733     -2764060.220      2532659.663
10 0 59810 13140.000000 0      5310683.271     -2768773.214      3725716.825
10 0 59810 13320.000000 0      4450398.222     -2652358.621      4781786.331
10 0 59810 13500.000000 0      3432294.297     -2414454.492      5662014.475
10 0 59810 13680.000000 0      2296672.670     -2060138.061      6334048.308
10 0 59810 13860.000000 0      1087923.732     -1599854.200      6773218.760
10 0 59810 14040.000000 0      -147249.536     -1049106.840      6963426.803
10 0 59810 14220.000000 0     -1361664.400      -427924.391      6897710.559
10 0 59810 14400.000000 0     -2509476.372       239880.008      6578486.220
10 0 59810 14580.000000 0     -3547924.214       927629.345      6017462.907
10 0 59810 14760.000000 0     -4438946.885      1606853.160      5235231.430
10 0 59810 14940.000000 0     -5150617.747      2248469.748      4260530.500
10 0 59810 15120.000000 0     -5658335.759      2824036.350      3129201.846
10 0 59810 15300.000000 0     -5945718.153      3307010.355      1882866.781
10 0 59810 15480.000000 0     -6005157.482      3673963.650       567370.053
10 0 59810 15660.000000 0     -5838008.458      3905687.214      -768955.425
10 0 59810 15840.000000 0     -5454393.163      3988124.160     -2077120.482
10 0 59810 16020.000000 0     -4872638.637      3913085.731     -3309328.610
10 0 59810 16200.000000 0     -4118375.577      3678710.405     -4420751.838
10 0 59810 16380.000000 0     -3223361.113      3289650.634     -5371150.884
10 0 59810 16560.000000 0     -2224099.664      2756990.079     -6126281.760
10 0 59810 16740.000000 0     -1160333.727      2097905.498     -6659056.338
10 0 59810 16920.000000 0       -73465.327      1335090.131     -6950430.227
10 0 59810 17100.000000 0       995024.269       495968.738     -6990007.802
10 0 59810 17280.000000 0      2005112.060      -388269.148     -6776371.155
10 0 59810 17460.000000 0      2919689.321     -1283795.301     -6317125.004
10 0 59810 17640.000000 0      3705892.356     -2155395.171     -5628659.793
10 0 59810 17820.000000 0      4336277.076     -2967815.352     -4735637.019
10 0 59810 18000.000000 0      4789800.563     -3687172.544     -3670188.641
10 0 59810 18180.000000 0      5052565.135     -4282365.055     -2470838.421
10 0 59810 18360.000000 0      5118296.323     -4726430.224     -1181165.858
10 0 59810 18540.000000 0      4988519.528     -4997783.054       151756.798
10 0 59810 18720.000000 0      4672411.922     -5081267.699      1479100.345
10 0 59810 18900.000000 0      4186328.469     -4968955.212      2752114.244
10 0 59810 19080.000000 0      3553021.280     -4660640.540      3923974.444
10 0 59810 19260.000000 0      2800593.538     -4164011.466      4951558.976
10 0 59810 19440.000000 0      1961242.497     -3494477.021      5797071.196
10 0 59810 19620.000000 0      1069858.950     -2674667.725      6429443.940
10 0 59810 19800.000000 0       162550.320     -1733633.478      6825471.913
10 0 59810 19980.000000 0      -724841.764      -705780.911      6970640.039
10 0 59810 20160.000000 0     -1558168.401       370410.128      6859636.104
10 0 59810 20340.000000 0     -2306297.512      1453845.652      6496536.155
10 0 59810 20520.000000 0     -2942289.457      2502400.567      5894659.200
10 0 59810 20700.000000 0     -3444384.433      3474572.997      5076096.579
10 0 59810 20880.000000 0     -3796769.907      4331153.064      4070922.847
10 0 59810 21060.000000 0     -3990096.419      5036840.518      2916102.518
10 0 59810 21240.000000 0     -4021715.645      5561739.251      1654121.092
10 0 59810 21420.000000 0     -3895626.737      5882650.400       331389.846
10 0 59810 21600.000000 0     -3622137.934      5984102.618     -1003507.404
10 0 59810 21780.000000 0     -3217257.059      5859063.346     -2301659.668
10 0 59810 21960.000000 0     -2701838.644      5509284.948     -3515673.134
99
